{
  "schema_version": 1,
  "seed": 1,
  "age_s": 1.0473997763154722e+17,
  "stars": [
    {
      "mass_kg": 8.786628740474347e+29,
      "radius_m": 361897824.76517963,
      "luminosity_w": 1.4581149942633689e+25,
      "temperature_k": 3535.487445881555,
      "main_sequence_lifetime_s": 2.4329018589756626e+18,
      "orbit": null
    }
  ],
  "planet_host": "Primary",
  "planets": [
    {
      "class": "Rocky",
      "mass_kg": 1.1745814728287554e+25,
      "radius_m": 7647505.2168159345,
      "orbit": {
        "semi_major_axis_m": 11082797368.5515,
        "eccentricity": 0.11062947189802663,
        "inclination_rad": 0.03134562592753648,
        "raan_rad": 5.4186518512129815,
        "arg_periapsis_rad": 3.447012424799295,
        "mean_anomaly_epoch_rad": 5.183028333688665
      },
      "secular": {
        "apsidal_rad_per_s": 1.173671177389152e-12,
        "nodal_rad_per_s": 0.0,
        "migration_m_per_s": 0.0
      },
      "axial_tilt_rad": 0.4253576175548742,
      "axial_precession_rad_per_s": 4.399576150825476e-9,
      "rotation_period_s": 51694.73895005676,
      "spin_drift_s_per_s": 0.0,
      "state": "Living",
      "moons": [],
      "calendar": null
    },
    {
      "class": "Rocky",
      "mass_kg": 4.645554137671037e+23,
      "radius_m": 3197064.9872020367,
      "orbit": {
        "semi_major_axis_m": 18914957027.697174,
        "eccentricity": 0.006160952896140208,
        "inclination_rad": 0.011285037116087904,
        "raan_rad": 1.9809715909482437,
        "arg_periapsis_rad": 3.8523500337942,
        "mean_anomaly_epoch_rad": 1.0618309119191334
      },
      "secular": {
        "apsidal_rad_per_s": 3.046666637520949e-13,
        "nodal_rad_per_s": 0.0,
        "migration_m_per_s": 0.0
      },
      "axial_tilt_rad": 0.14412556235973256,
      "axial_precession_rad_per_s": 3.206660996550735e-10,
      "rotation_period_s": 155004.17553067833,
      "spin_drift_s_per_s": 0.0,
      "state": "Living",
      "moons": [],
      "calendar": null
    },
    {
      "class": "Rocky",
      "mass_kg": 1.2161107593972743e+25,
      "radius_m": 7719587.207528191,
      "orbit": {
        "semi_major_axis_m": 30737569980.61524,
        "eccentricity": 0.06769889516102554,
        "inclination_rad": 0.009040952636747568,
        "raan_rad": 1.0979503992470727,
        "arg_periapsis_rad": 3.604975070478762,
        "mean_anomaly_epoch_rad": 0.01551172203748601
      },
      "secular": {
        "apsidal_rad_per_s": 9.091656749580953e-14,
        "nodal_rad_per_s": 0.0,
        "migration_m_per_s": 0.0
      },
      "axial_tilt_rad": 0.38881499417680787,
      "axial_precession_rad_per_s": 2.762773222844522e-10,
      "rotation_period_s": 161572.22369711392,
      "spin_drift_s_per_s": 5.276072974893167e-9,
      "state": "Living",
      "moons": [
        {
          "mass_kg": 6.765828982894185e+22,
          "radius_m": 1752684.3845751039,
          "orbit": {
            "semi_major_axis_m": 91987438.5574281,
            "eccentricity": 0.06442408522916483,
            "inclination_rad": 0.08415574154722309,
            "raan_rad": 2.4863597644913367,
            "arg_periapsis_rad": 0.3021104418061015,
            "mean_anomaly_epoch_rad": 3.456526180917838
          },
          "secular": {
            "apsidal_rad_per_s": 9.814397234858066e-8,
            "nodal_rad_per_s": -4.673522492789555e-8,
            "migration_m_per_s": 5.269016744959948e-6
          },
          "tidally_locked": true,
          "rotation_period_s": 194573.2933670855,
          "doom_time_s": null
        },
        {
          "mass_kg": 8.581511224067568e+22,
          "radius_m": 1897221.2059401704,
          "orbit": {
            "semi_major_axis_m": 225077379.7962454,
            "eccentricity": 0.06526543555138861,
            "inclination_rad": 0.07138454018241441,
            "raan_rad": 3.385329832165818,
            "arg_periapsis_rad": 2.034559594540864,
            "mean_anomaly_epoch_rad": 0.6591107863802129
          },
          "secular": {
            "apsidal_rad_per_s": 3.7601125619986377e-7,
            "nodal_rad_per_s": -1.7905297914279227e-7,
            "migration_m_per_s": 4.8714029032302456e-8
          },
          "tidally_locked": true,
          "rotation_period_s": 744711.7689432928,
          "doom_time_s": null
        }
      ],
      "calendar": {
        "solar_day_s": 167700.39100084294,
        "year_solar_days": 26.365504675238956,
        "leap": {
          "base_days": 26,
          "terms": [
            {
              "every_years": 3,
              "add_days": 1
            },
            {
              "every_years": 31,
              "add_days": 1
            }
          ]
        },
        "months": [
          {
            "moon_index": 0,
            "synodic_days": 1.2136516259022228
          },
          {
            "moon_index": 1,
            "synodic_days": 5.340169551658636
          }
        ]
      }
    },
    {
      "class": "Rocky",
      "mass_kg": 7.243143673641374e+23,
      "radius_m": 3604388.9482742837,
      "orbit": {
        "semi_major_axis_m": 62510428954.7049,
        "eccentricity": 0.03342558166117492,
        "inclination_rad": 0.04016602898236627,
        "raan_rad": 0.6236133998331111,
        "arg_periapsis_rad": 5.1536578636559724,
        "mean_anomaly_epoch_rad": 5.071820388806555
      },
      "secular": {
        "apsidal_rad_per_s": 1.5361235483089402e-14,
        "nodal_rad_per_s": 0.0,
        "migration_m_per_s": 0.0
      },
      "axial_tilt_rad": 0.30072639892978115,
      "axial_precession_rad_per_s": 2.555817630753671e-11,
      "rotation_period_s": 52000.821253249924,
      "spin_drift_s_per_s": 0.0,
      "state": "Living",
      "moons": [],
      "calendar": null
    },
    {
      "class": "GasGiant",
      "mass_kg": 2.8307323271917033e+26,
      "radius_m": 70950996.24623886,
      "orbit": {
        "semi_major_axis_m": 127514186224.80957,
        "eccentricity": 0.18868315365131777,
        "inclination_rad": 0.03265858875115266,
        "raan_rad": 2.865857605495799,
        "arg_periapsis_rad": 4.680657776478821,
        "mean_anomaly_epoch_rad": 0.09227254102463385
      },
      "secular": {
        "apsidal_rad_per_s": 2.6771270887960976e-15,
        "nodal_rad_per_s": 0.0,
        "migration_m_per_s": 0.0
      },
      "axial_tilt_rad": 0.521244760890643,
      "axial_precession_rad_per_s": 1.9137665419395858e-11,
      "rotation_period_s": 63920.51824642687,
      "spin_drift_s_per_s": 3.8121964795716195e-12,
      "state": "Living",
      "moons": [
        {
          "mass_kg": 4.978339886262044e+22,
          "radius_m": 1582309.9532706304,
          "orbit": {
            "semi_major_axis_m": 249772487.15642485,
            "eccentricity": 0.07186932069119821,
            "inclination_rad": 0.034146212765125854,
            "raan_rad": 4.972119161431056,
            "arg_periapsis_rad": 3.0073304312879685,
            "mean_anomaly_epoch_rad": 4.710704757844282
          },
          "secular": {
            "apsidal_rad_per_s": 1.27862869296001e-9,
            "nodal_rad_per_s": -6.088708061714333e-10,
            "migration_m_per_s": 0.00021670252474001453
          },
          "tidally_locked": true,
          "rotation_period_s": 180444.85428596794,
          "doom_time_s": null
        },
        {
          "mass_kg": 3.841877982612024e+21,
          "radius_m": 673665.9051525522,
          "orbit": {
            "semi_major_axis_m": 554277750.1840098,
            "eccentricity": 0.016259873189045548,
            "inclination_rad": 0.012045701205508099,
            "raan_rad": 5.009361952580262,
            "arg_periapsis_rad": 6.04722864775031,
            "mean_anomaly_epoch_rad": 4.8273017665713605
          },
          "secular": {
            "apsidal_rad_per_s": 4.229026855097332e-9,
            "nodal_rad_per_s": -2.0138223119511103e-9,
            "migration_m_per_s": 2.0860145633848508e-7
          },
          "tidally_locked": true,
          "rotation_period_s": 596511.4336876567,
          "doom_time_s": null
        },
        {
          "mass_kg": 3.972673426180843e+21,
          "radius_m": 681225.6632792877,
          "orbit": {
            "semi_major_axis_m": 1284577167.412534,
            "eccentricity": 0.039104119977693974,
            "inclination_rad": 0.014340537322661433,
            "raan_rad": 0.34089941654838307,
            "arg_periapsis_rad": 2.530028424327196,
            "mean_anomaly_epoch_rad": 4.963572069878477
          },
          "secular": {
            "apsidal_rad_per_s": 1.4920261089221618e-8,
            "nodal_rad_per_s": -7.104886232962674e-9,
            "migration_m_per_s": 2.1192221897895066e-9
          },
          "tidally_locked": true,
          "rotation_period_s": 2104591.9352497864,
          "doom_time_s": null
        },
        {
          "mass_kg": 3.7538110849564554e+22,
          "radius_m": 1440193.5098774391,
          "orbit": {
            "semi_major_axis_m": 2190632093.391198,
            "eccentricity": 0.039002764990611685,
            "inclination_rad": 0.0015672149966642656,
            "raan_rad": 0.18728290730836467,
            "arg_periapsis_rad": 3.94311529144438,
            "mean_anomaly_epoch_rad": 1.6489935313267947
          },
          "secular": {
            "apsidal_rad_per_s": 3.323031199911513e-8,
            "nodal_rad_per_s": -1.582395809481673e-8,
            "migration_m_per_s": 1.0632005156921005e-9
          },
          "tidally_locked": true,
          "rotation_period_s": 4686857.756241745,
          "doom_time_s": null
        }
      ],
      "calendar": null
    }
  ],
  "anchor_planet": 2
}
